ONEWEB-0387             
1 49313U 21090AL  25225.56681627  .00000149  00000+0  33571-3 0  9994
2 49313  87.9288 335.7754 0001985 109.0051 251.1298 13.20772310189212
ONEWEB-0388             
1 49314U 21090AM  25225.36421023  .00000075  00000+0  15415-3 0  9990
2 49314  87.9249   6.1751 0001978  97.7680 262.3678 13.19724401185813
ONEWEB-0389             
1 50469U 21132A   25225.58129958 -.00001751  00000+0 -45442-2 0  9992
2 50469  87.9029  67.0832 0002625 112.7940 247.3469 13.17636198177573
ONEWEB-0390             
1 50470U 21132B   25225.58296636 -.00000023  00000+0 -92073-4 0  9997
2 50470  87.9031  67.0899 0001460  87.2813 272.8486 13.17649942177575
ONEWEB-0391             
1 50471U 21132C   25225.58466951  .00000003  00000+0 -25114-4 0  9996
2 50471  87.9028  67.1037 0001754 115.7499 244.3814 13.17648862177579
ONEWEB-0392             
1 50472U 21132D   25225.53910640  .00000008  00000+0 -11608-4 0  9999
2 50472  87.9028  67.0564 0001828 100.1758 259.9580 13.17648332177600
ONEWEB-0393             
1 50473U 21132E   25225.58816017  .00000020  00000+0  17588-4 0  9994
2 50473  87.9033  67.0661 0001739  92.9321 267.2010 13.17651065177607
ONEWEB-0394             
1 50474U 21132F   25225.49449669  .00000085  00000+0  18191-3 0  9991
2 50474  87.9139  36.5496 0001966  96.2957 263.8399 13.18686146181040
